start=new Date('2022-08-14T00:00:00.000Z').valueOf();
sats=[{"OBJECT_TYPE":"PAYLOAD","INCLINATION":"53.0555","REV_AT_EPOCH":"10058","BSTAR":"-0.00007418200000","EPOCH":"2022-08-13T16:27:07.082496","PERIOD":"95.593","MEAN_MOTION":"15.06390117","TLE_LINE1":"1 46726U 20073BJ  22225.68549864 -.00001387  00000-0 -74182-4 0  9997","SITE":"AFETR","COUNTRY_CODE":"US","RCS_SIZE":"LARGE","CLASSIFICATION_TYPE":"U","MEAN_MOTION_DOT":"-0.00001387","OBJECT_ID":"2020-073BJ","TIME_SYSTEM":"UTC","PERIAPSIS":"544.247","NORAD_CAT_ID":"46726","EPHEMERIS_TYPE":"0","MEAN_MOTION_DDOT":"0.0000000000000","GP_ID":"210162216","ECCENTRICITY":"0.00043280","FILE":"3535825","DECAY_DATE":null,"MEAN_ELEMENT_THEORY":"SGP4","LAUNCH_DATE":"2020-10-18","ELEMENT_SET_NO":"999","MEAN_ANOMALY":"243.9804","APOAPSIS":"550.241","ARG_OF_PERICENTER":"116.1631","REF_FRAME":"TEME","TLE_LINE2":"2 46726  53.0555 335.5149 0004328 116.1631 243.9804 15.06390117100583","SEMIMAJOR_AXIS":"6925.379","CENTER_NAME":"EARTH","OBJECT_NAME":"STARLINK-1829","RA_OF_ASC_NODE":"335.5149"},{"PERIOD":"95.592","TLE_LINE1":"1 46727U 20073BK  22225.64265680 -.00000762  00000-0 -32282-4 0  9996","MEAN_MOTION":"15.06398332","SITE":"AFETR","RCS_SIZE":"LARGE","COUNTRY_CODE":"US","MEAN_MOTION_DOT":"-0.00000762","CLASSIFICATION_TYPE":"U","TIME_SYSTEM":"UTC","OBJECT_ID":"2020-073BK","PERIAPSIS":"546.389","INCLINATION":"53.0556","OBJECT_TYPE":"PAYLOAD","REV_AT_EPOCH":"10093","BSTAR":"-0.00003228200000","EPOCH":"2022-08-13T15:25:25.547520","MEAN_ELEMENT_THEORY":"SGP4","LAUNCH_DATE":"2020-10-18","ELEMENT_SET_NO":"999","MEAN_ANOMALY":"276.3071","APOAPSIS":"548.048","ARG_OF_PERICENTER":"83.8054","SEMIMAJOR_AXIS":"6925.354","TLE_LINE2":"2 46727  53.0556 310.7209 0001198  83.8054 276.3071 15.06398332100930","REF_FRAME":"TEME","CENTER_NAME":"EARTH","OBJECT_NAME":"STARLINK-1830","RA_OF_ASC_NODE":"310.7209","NORAD_CAT_ID":"46727","MEAN_MOTION_DDOT":"0.0000000000000","EPHEMERIS_TYPE":"0","GP_ID":"210162967","FILE":"3535825","ECCENTRICITY":"0.00011980","DECAY_DATE":null},{"EPOCH":"2022-08-13T19:14:59.114112","BSTAR":"0.00027375000000","REV_AT_EPOCH":"10007","INCLINATION":"53.0539","OBJECT_TYPE":"PAYLOAD","PERIAPSIS":"546.097","OBJECT_ID":"2020-074B","TIME_SYSTEM":"UTC","MEAN_MOTION_DOT":"0.00003799","CLASSIFICATION_TYPE":"U","RCS_SIZE":"LARGE","COUNTRY_CODE":"US","SITE":"AFETR","TLE_LINE1":"1 46740U 20074B   22225.80207308  .00003799  00000-0  27375-3 0  9990","MEAN_MOTION":"15.06406723","PERIOD":"95.592","DECAY_DATE":null,"FILE":"3535825","ECCENTRICITY":"0.00015820","GP_ID":"210163719","MEAN_MOTION_DDOT":"0.0000000000000","EPHEMERIS_TYPE":"0","NORAD_CAT_ID":"46740","RA_OF_ASC_NODE":"60.0034","CENTER_NAME":"EARTH","OBJECT_NAME":"STARLINK-1848","SEMIMAJOR_AXIS":"6925.328","TLE_LINE2":"2 46740  53.0539  60.0034 0001582  88.4930 271.6240 15.06406723100073","REF_FRAME":"TEME","APOAPSIS":"548.289","MEAN_ANOMALY":"271.6240","ARG_OF_PERICENTER":"88.4930","ELEMENT_SET_NO":"999","LAUNCH_DATE":"2020-10-24","MEAN_ELEMENT_THEORY":"SGP4"},{"RA_OF_ASC_NODE":"55.2204","CENTER_NAME":"EARTH","OBJECT_NAME":"STARLINK-1865","REF_FRAME":"TEME","TLE_LINE2":"2 46741  53.0559  55.2204 0001337  92.3240 267.7902 15.06395944100148","SEMIMAJOR_AXIS":"6925.361","ARG_OF_PERICENTER":"92.3240","APOAPSIS":"548.152","MEAN_ANOMALY":"267.7902","ELEMENT_SET_NO":"999","LAUNCH_DATE":"2020-10-24","MEAN_ELEMENT_THEORY":"SGP4","DECAY_DATE":null,"ECCENTRICITY":"0.00013370","FILE":"3535825","GP_ID":"210163469","EPHEMERIS_TYPE":"0","MEAN_MOTION_DDOT":"0.0000000000000","NORAD_CAT_ID":"46741","PERIAPSIS":"546.300","TIME_SYSTEM":"UTC","OBJECT_ID":"2020-074C","CLASSIFICATION_TYPE":"U","MEAN_MOTION_DOT":"0.00000622","COUNTRY_CODE":"US","RCS_SIZE":"LARGE","SITE":"AFETR","MEAN_MOTION":"15.06395944","TLE_LINE1":"1 46741U 20074C   22225.75278685  .00000622  00000-0  60652-4 0  9999","PERIOD":"95.592","EPOCH":"2022-08-13T18:04:00.783840","BSTAR":"0.00006065200000","REV_AT_EPOCH":"10014","OBJECT_TYPE":"PAYLOAD","INCLINATION":"53.0559"},{"INCLINATION":"53.0559","OBJECT_TYPE":"PAYLOAD","BSTAR":"0.00007032300000","EPOCH":"2022-08-13T18:57:04.988448","REV_AT_EPOCH":"10014","SITE":"AFETR","RCS_SIZE":"LARGE","COUNTRY_CODE":"US","PERIOD":"95.592","TLE_LINE1":"1 46742U 20074D   22225.78964107  .00000766  00000-0  70323-4 0  9999","MEAN_MOTION":"15.06403577","PERIAPSIS":"546.317","MEAN_MOTION_DOT":"0.00000766","CLASSIFICATION_TYPE":"U","OBJECT_ID":"2020-074D","TIME_SYSTEM":"UTC","NORAD_CAT_ID":"46742","FILE":"3535825","ECCENTRICITY":"0.00012790","DECAY_DATE":null,"EPHEMERIS_TYPE":"0","MEAN_MOTION_DDOT":"0.0000000000000","GP_ID":"210162217","LAUNCH_DATE":"2020-10-24","ELEMENT_SET_NO":"999","MEAN_ELEMENT_THEORY":"SGP4","OBJECT_NAME":"STARLINK-1872","CENTER_NAME":"EARTH","RA_OF_ASC_NODE":"55.0635","ARG_OF_PERICENTER":"89.8997","APOAPSIS":"548.088","MEAN_ANOMALY":"270.2138","SEMIMAJOR_AXIS":"6925.338","REF_FRAME":"TEME","TLE_LINE2":"2 46742  53.0559  55.0635 0001279  89.8997 270.2138 15.06403577100142"},{"MEAN_MOTION":"15.06393003","TLE_LINE1":"1 46743U 20074E   22225.74541649  .00000771  00000-0  70629-4 0  9993","PERIOD":"95.593","COUNTRY_CODE":"US","RCS_SIZE":"LARGE","SITE":"AFETR","OBJECT_ID":"2020-074E","TIME_SYSTEM":"UTC","CLASSIFICATION_TYPE":"U","MEAN_MOTION_DOT":"0.00000771","PERIAPSIS":"546.241","OBJECT_TYPE":"PAYLOAD","INCLINATION":"53.0553","REV_AT_EPOCH":"10014","EPOCH":"2022-08-13T17:53:23.984736","BSTAR":"0.00007062900000","MEAN_ELEMENT_THEORY":"SGP4","ELEMENT_SET_NO":"999","LAUNCH_DATE":"2020-10-24","TLE_LINE2":"2 46743  53.0553  55.2381 0001435 100.3711 259.7440 15.06393003100144","REF_FRAME":"TEME","SEMIMAJOR_AXIS":"6925.370","MEAN_ANOMALY":"259.7440","APOAPSIS":"548.229","ARG_OF_PERICENTER":"100.3711","RA_OF_ASC_NODE":"55.2381","CENTER_NAME":"EARTH","OBJECT_NAME":"STARLINK-1892","NORAD_CAT_ID":"46743","GP_ID":"210162968","MEAN_MOTION_DDOT":"0.0000000000000","EPHEMERIS_TYPE":"0","DECAY_DATE":null,"ECCENTRICITY":"0.00014350","FILE":"3535825"},{"CENTER_NAME":"EARTH","OBJECT_NAME":"STARLINK-1894","RA_OF_ASC_NODE":"54.8780","MEAN_ANOMALY":"306.1245","APOAPSIS":"548.145","ARG_OF_PERICENTER":"53.9867","SEMIMAJOR_AXIS":"6925.359","TLE_LINE2":"2 46744  53.0562  54.8780 0001329  53.9867 306.1245 15.06396547100157","REF_FRAME":"TEME","LAUNCH_DATE":"2020-10-24","ELEMENT_SET_NO":"999","MEAN_ELEMENT_THEORY":"SGP4","FILE":"3535825","ECCENTRICITY":"0.00013290","DECAY_DATE":null,"MEAN_MOTION_DDOT":"0.0000000000000","EPHEMERIS_TYPE":"0","GP_ID":"210163219","NORAD_CAT_ID":"46744","PERIAPSIS":"546.304","MEAN_MOTION_DOT":"0.00000842","CLASSIFICATION_TYPE":"U","OBJECT_ID":"2020-074F","TIME_SYSTEM":"UTC","SITE":"AFETR","RCS_SIZE":"LARGE","COUNTRY_CODE":"US","PERIOD":"95.592","TLE_LINE1":"1 46744U 20074F   22225.82923309  .00000842  00000-0  75427-4 0  9990","MEAN_MOTION":"15.06396547","BSTAR":"0.00007542700000","EPOCH":"2022-08-13T19:54:05.738976","REV_AT_EPOCH":"10015","INCLINATION":"53.0562","OBJECT_TYPE":"PAYLOAD"},{"REV_AT_EPOCH":"10112","BSTAR":"0.00245370000000","EPOCH":"2022-08-13T17:17:51.600768","INCLINATION":"53.0526","OBJECT_TYPE":"PAYLOAD","MEAN_MOTION_DOT":"0.00160541","CLASSIFICATION_TYPE":"U","OBJECT_ID":"2020-074G","TIME_SYSTEM":"UTC","PERIAPSIS":"401.194","PERIOD":"92.704","TLE_LINE1":"1 46745U 20074G   22225.72073612  .00160541  00000-0  24537-2 0  9990","MEAN_MOTION":"15.53331907","SITE":"AFETR","RCS_SIZE":"LARGE","COUNTRY_CODE":"US","EPHEMERIS_TYPE":"0","MEAN_MOTION_DDOT":"0.0000000000000","GP_ID":"210163970","FILE":"3535825","ECCENTRICITY":"0.00085690","DECAY_DATE":null,"NORAD_CAT_ID":"46745","APOAPSIS":"412.822","ARG_OF_PERICENTER":"279.8233","MEAN_ANOMALY":"80.1808","SEMIMAJOR_AXIS":"6785.143","REF_FRAME":"TEME","TLE_LINE2":"2 46745  53.0526 345.5395 0008569 279.8233  80.1808 15.53331907101122","OBJECT_NAME":"STARLINK-1898","CENTER_NAME":"EARTH","RA_OF_ASC_NODE":"345.5395","MEAN_ELEMENT_THEORY":"SGP4","LAUNCH_DATE":"2020-10-24","ELEMENT_SET_NO":"999"},{"GP_ID":"210162718","MEAN_MOTION_DDOT":"0.0000000000000","EPHEMERIS_TYPE":"0","DECAY_DATE":null,"FILE":"3535825","ECCENTRICITY":"0.00014750","NORAD_CAT_ID":"46746","SEMIMAJOR_AXIS":"6925.372","REF_FRAME":"TEME","TLE_LINE2":"2 46746  53.0537  54.8103 0001475  77.5595 282.5559 15.06392455100151","APOAPSIS":"548.258","ARG_OF_PERICENTER":"77.5595","MEAN_ANOMALY":"282.5559","RA_OF_ASC_NODE":"54.8103","CENTER_NAME":"EARTH","OBJECT_NAME":"STARLINK-1905","MEAN_ELEMENT_THEORY":"SGP4","ELEMENT_SET_NO":"999","LAUNCH_DATE":"2020-10-24","REV_AT_EPOCH":"10015","EPOCH":"2022-08-13T20:16:42.722688","BSTAR":"0.00002643700000","INCLINATION":"53.0537","OBJECT_TYPE":"PAYLOAD","TIME_SYSTEM":"UTC","OBJECT_ID":"2020-074H","MEAN_MOTION_DOT":"0.00000112","CLASSIFICATION_TYPE":"U","PERIAPSIS":"546.215","TLE_LINE1":"1 46746U 20074H   22225.84493892  .00000112  00000-0  26437-4 0  9990","MEAN_MOTION":"15.06392455","PERIOD":"95.593","RCS_SIZE":"LARGE","COUNTRY_CODE":"US","SITE":"AFETR"},{"GP_ID":"210162468","MEAN_MOTION_DDOT":"0.0000000000000","EPHEMERIS_TYPE":"0","DECAY_DATE":null,"ECCENTRICITY":"0.00013640","FILE":"3535825","NORAD_CAT_ID":"46747","TLE_LINE2":"2 46747  53.0548  54.8994 0001364  92.0212 268.0933 15.06395119100152","REF_FRAME":"TEME","SEMIMAJOR_AXIS":"6925.364","MEAN_ANOMALY":"268.0933","APOAPSIS":"548.173","ARG_OF_PERICENTER":"92.0212","RA_OF_ASC_NODE":"54.8994","CENTER_NAME":"EARTH","OBJECT_NAME":"STARLINK-1908","MEAN_ELEMENT_THEORY":"SGP4","ELEMENT_SET_NO":"999","LAUNCH_DATE":"2020-10-24","REV_AT_EPOCH":"10015","EPOCH":"2022-08-13T19:50:09.609504","BSTAR":"-0.00009349800000","OBJECT_TYPE":"PAYLOAD","INCLINATION":"53.0548","OBJECT_ID":"2020-074J","TIME_SYSTEM":"UTC","CLASSIFICATION_TYPE":"U","MEAN_MOTION_DOT":"-0.00001674","PERIAPSIS":"546.284","MEAN_MOTION":"15.06395119","TLE_LINE1":"1 46747U 20074J   22225.82650011 -.00001674  00000-0 -93498-4 0  9994","PERIOD":"95.592","COUNTRY_CODE":"US","RCS_SIZE":"LARGE","SITE":"AFETR"}];
